NAVSTAR 46 (USA 145)    
1 25933U 99055A   25123.47383554 -.00000067  00000+0  00000+0 0  9994
2 25933  51.8256 313.3393 0115302 161.3057 205.9163  2.00558771187367
NAVSTAR 47 (USA 150)    
1 26360U 00025A   25123.75449968 -.00000096  00000+0  00000+0 0  9993
2 26360  54.9063  35.8560 0036793 232.7139 135.5227  2.00553438183061
NAVSTAR 48 (USA 151)    
1 26407U 00040A   25123.70594422 -.00000035  00000+0  00000+0 0  9996
2 26407  54.9516 231.4332 0133520 298.5607 234.3309  2.00565184181735
NAVSTAR 49 (USA 154)    
1 26605U 00071A   25123.62224735  .00000043  00000+0  00000+0 0  9996
2 26605  55.4062 111.1408 0165135 262.9066 138.4179  2.00558942179310
NAVSTAR 51 (USA 166)    
1 27663U 03005A   25123.77571924 -.00000036  00000+0  00000+0 0  9995
2 27663  54.9867 231.2405 0142909  50.1175 312.5455  2.00556655163106
NAVSTAR 52 (USA 168)    
1 27704U 03010A   25114.27901181 -.00000062  00000+0  00000+0 0  9993
2 27704  56.3591 341.1287 1408015  66.7375 122.1722  2.00496650161692
NAVSTAR 54 (USA 177)    
1 28190U 04009A   25123.80628192 -.00000039  00000+0  00000+0 0  9993
2 28190  55.1772 292.1912 0104018 159.1736  22.5903  2.00568708154738
NAVSTAR 55 (USA 178)    
1 28361U 04023A   25123.80402303  .00000034  00000+0  00000+0 0  9997
2 28361  54.5960 103.2717 0156241 290.2910  65.0178  2.00562302152829
NAVSTAR 56 (USA 180)    
1 28474U 04045A   25123.75601723 -.00000093  00000+0  00000+0 0  9993
2 28474  55.3385 341.3610 0166210 302.6843 263.8679  2.00559456150212
NAVSTAR 57 (USA 183)    
1 28874U 05038A   25123.52939652 -.00000036  00000+0  00000+0 0  9997
2 28874  55.2222 289.6745 0132488 289.9597  77.3810  2.00563367143629
NAVSTAR 58 (USA 190)    
1 29486U 06042A   25123.71208801  .00000017  00000+0  00000+0 0  9997
2 29486  54.6808 167.5850 0103900  45.8252 354.0727  2.00565284136182
NAVSTAR 59 (USA 192)    
1 29601U 06052A   25123.58676577 -.00000033  00000+0  00000+0 0  9990
2 29601  55.0270 230.2500 0086388  86.0190 274.9805  2.00560670135198
