[
    {
        "OBJECT_NAME": "NAVSTAR 46 (USA 145)",
        "OBJECT_ID": "1999-055A",
        "EPOCH": "2025-05-03T11:22:19.390656",
        "MEAN_MOTION": 2.00558771,
        "ECCENTRICITY": 0.0115302,
        "INCLINATION": 51.8256,
        "RA_OF_ASC_NODE": 313.3393,
        "ARG_OF_PERICENTER": 161.3057,
        "MEAN_ANOMALY": 205.9163,
        "EPHEMERIS_TYPE": 0,
        "CLASSIFICATION_TYPE": "U",
        "NORAD_CAT_ID": 25933,
        "ELEMENT_SET_NO": 999,
        "REV_AT_EPOCH": 18736,
        "BSTAR": 0,
        "MEAN_MOTION_DOT": -6.7e-07,
        "MEAN_MOTION_DDOT": 0
    },
    {
        "OBJECT_NAME": "NAVSTAR 47 (USA 150)",
        "OBJECT_ID": "2000-025A",
        "EPOCH": "2025-05-03T18:06:28.772352",
        "MEAN_MOTION": 2.00553438,
        "ECCENTRICITY": 0.0036793,
        "INCLINATION": 54.9063,
        "RA_OF_ASC_NODE": 35.856,
        "ARG_OF_PERICENTER": 232.7139,
        "MEAN_ANOMALY": 135.5227,
        "EPHEMERIS_TYPE": 0,
        "CLASSIFICATION_TYPE": "U",
        "NORAD_CAT_ID": 26360,
        "ELEMENT_SET_NO": 999,
        "REV_AT_EPOCH": 18306,
        "BSTAR": 0,
        "MEAN_MOTION_DOT": -9.6e-07,
        "MEAN_MOTION_DDOT": 0
    },
    {
        "OBJECT_NAME": "NAVSTAR 48 (USA 151)",
        "OBJECT_ID": "2000-040A",
        "EPOCH": "2025-05-03T16:56:33.580608",
        "MEAN_MOTION": 2.00565184,
        "ECCENTRICITY": 0.013352,
        "INCLINATION": 54.9516,
        "RA_OF_ASC_NODE": 231.4332,
        "ARG_OF_PERICENTER": 298.5607,
        "MEAN_ANOMALY": 234.3309,
        "EPHEMERIS_TYPE": 0,
        "CLASSIFICATION_TYPE": "U",
        "NORAD_CAT_ID": 26407,
        "ELEMENT_SET_NO": 999,
        "REV_AT_EPOCH": 18173,
        "BSTAR": 0,
        "MEAN_MOTION_DOT": -3.5e-07,
        "MEAN_MOTION_DDOT": 0
    },
    {
        "OBJECT_NAME": "NAVSTAR 49 (USA 154)",
        "OBJECT_ID": "2000-071A",
        "EPOCH": "2025-05-03T14:56:02.171040",
        "MEAN_MOTION": 2.00558942,
        "ECCENTRICITY": 0.0165135,
        "INCLINATION": 55.4062,
        "RA_OF_ASC_NODE": 111.1408,
        "ARG_OF_PERICENTER": 262.9066,
        "MEAN_ANOMALY": 138.4179,
        "EPHEMERIS_TYPE": 0,
        "CLASSIFICATION_TYPE": "U",
        "NORAD_CAT_ID": 26605,
        "ELEMENT_SET_NO": 999,
        "REV_AT_EPOCH": 17931,
        "BSTAR": 0,
        "MEAN_MOTION_DOT": 4.3e-07,
        "MEAN_MOTION_DDOT": 0
    },
    {
        "OBJECT_NAME": "NAVSTAR 51 (USA 166)",
        "OBJECT_ID": "2003-005A",
        "EPOCH": "2025-05-03T18:37:02.142336",
        "MEAN_MOTION": 2.00556655,
        "ECCENTRICITY": 0.0142909,
        "INCLINATION": 54.9867,
        "RA_OF_ASC_NODE": 231.2405,
        "ARG_OF_PERICENTER": 50.1175,
        "MEAN_ANOMALY": 312.5455,
        "EPHEMERIS_TYPE": 0,
        "CLASSIFICATION_TYPE": "U",
        "NORAD_CAT_ID": 27663,
        "ELEMENT_SET_NO": 999,
        "REV_AT_EPOCH": 16310,
        "BSTAR": 0,
        "MEAN_MOTION_DOT": -3.6e-07,
        "MEAN_MOTION_DDOT": 0
    },
    {
        "OBJECT_NAME": "NAVSTAR 52 (USA 168)",
        "OBJECT_ID": "2003-010A",
        "EPOCH": "2025-04-24T06:41:46.620384",
        "MEAN_MOTION": 2.0049665,
        "ECCENTRICITY": 0.1408015,
        "INCLINATION": 56.3591,
        "RA_OF_ASC_NODE": 341.1287,
        "ARG_OF_PERICENTER": 66.7375,
        "MEAN_ANOMALY": 122.1722,
        "EPHEMERIS_TYPE": 0,
        "CLASSIFICATION_TYPE": "U",
        "NORAD_CAT_ID": 27704,
        "ELEMENT_SET_NO": 999,
        "REV_AT_EPOCH": 16169,
        "BSTAR": 0,
        "MEAN_MOTION_DOT": -6.2e-07,
        "MEAN_MOTION_DDOT": 0
    },
    {
        "OBJECT_NAME": "NAVSTAR 54 (USA 177)",
        "OBJECT_ID": "2004-009A",
        "EPOCH": "2025-05-03T19:21:02.757888",
        "MEAN_MOTION": 2.00568708,
        "ECCENTRICITY": 0.0104018,
        "INCLINATION": 55.1772,
        "RA_OF_ASC_NODE": 292.1912,
        "ARG_OF_PERICENTER": 159.1736,
        "MEAN_ANOMALY": 22.5903,
        "EPHEMERIS_TYPE": 0,
        "CLASSIFICATION_TYPE": "U",
        "NORAD_CAT_ID": 28190,
        "ELEMENT_SET_NO": 999,
        "REV_AT_EPOCH": 15473,
        "BSTAR": 0,
        "MEAN_MOTION_DOT": -3.9e-07,
        "MEAN_MOTION_DDOT": 0
    },
    {
        "OBJECT_NAME": "NAVSTAR 55 (USA 178)",
        "OBJECT_ID": "2004-023A",
        "EPOCH": "2025-05-03T19:17:47.589792",
        "MEAN_MOTION": 2.00562302,
        "ECCENTRICITY": 0.0156241,
        "INCLINATION": 54.596,
        "RA_OF_ASC_NODE": 103.2717,
        "ARG_OF_PERICENTER": 290.291,
        "MEAN_ANOMALY": 65.0178,
        "EPHEMERIS_TYPE": 0,
        "CLASSIFICATION_TYPE": "U",
        "NORAD_CAT_ID": 28361,
        "ELEMENT_SET_NO": 999,
        "REV_AT_EPOCH": 15282,
        "BSTAR": 0,
        "MEAN_MOTION_DOT": 3.4e-07,
        "MEAN_MOTION_DDOT": 0
    },
    {
        "OBJECT_NAME": "NAVSTAR 56 (USA 180)",
        "OBJECT_ID": "2004-045A",
        "EPOCH": "2025-05-03T18:08:39.888672",
        "MEAN_MOTION": 2.00559456,
        "ECCENTRICITY": 0.016621,
        "INCLINATION": 55.3385,
        "RA_OF_ASC_NODE": 341.361,
        "ARG_OF_PERICENTER": 302.6843,
        "MEAN_ANOMALY": 263.8679,
        "EPHEMERIS_TYPE": 0,
        "CLASSIFICATION_TYPE": "U",
        "NORAD_CAT_ID": 28474,
        "ELEMENT_SET_NO": 999,
        "REV_AT_EPOCH": 15021,
        "BSTAR": 0,
        "MEAN_MOTION_DOT": -9.3e-07,
        "MEAN_MOTION_DDOT": 0
    },
    {
        "OBJECT_NAME": "NAVSTAR 57 (USA 183)",
        "OBJECT_ID": "2005-038A",
        "EPOCH": "2025-05-03T12:42:19.859328",
        "MEAN_MOTION": 2.00563367,
        "ECCENTRICITY": 0.0132488,
        "INCLINATION": 55.2222,
        "RA_OF_ASC_NODE": 289.6745,
        "ARG_OF_PERICENTER": 289.9597,
        "MEAN_ANOMALY": 77.381,
        "EPHEMERIS_TYPE": 0,
        "CLASSIFICATION_TYPE": "U",
        "NORAD_CAT_ID": 28874,
        "ELEMENT_SET_NO": 999,
        "REV_AT_EPOCH": 14362,
        "BSTAR": 0,
        "MEAN_MOTION_DOT": -3.6e-07,
        "MEAN_MOTION_DDOT": 0
    },
    {
        "OBJECT_NAME": "NAVSTAR 58 (USA 190)",
        "OBJECT_ID": "2006-042A",
        "EPOCH": "2025-05-03T17:05:24.404064",
        "MEAN_MOTION": 2.00565284,
        "ECCENTRICITY": 0.01039,
        "INCLINATION": 54.6808,
        "RA_OF_ASC_NODE": 167.585,
        "ARG_OF_PERICENTER": 45.8252,
        "MEAN_ANOMALY": 354.0727,
        "EPHEMERIS_TYPE": 0,
        "CLASSIFICATION_TYPE": "U",
        "NORAD_CAT_ID": 29486,
        "ELEMENT_SET_NO": 999,
        "REV_AT_EPOCH": 13618,
        "BSTAR": 0,
        "MEAN_MOTION_DOT": 1.7e-07,
        "MEAN_MOTION_DDOT": 0
    },
    {
        "OBJECT_NAME": "NAVSTAR 59 (USA 192)",
        "OBJECT_ID": "2006-052A",
        "EPOCH": "2025-05-03T14:04:56.562528",
        "MEAN_MOTION": 2.0056067,
        "ECCENTRICITY": 0.0086388,
        "INCLINATION": 55.027,
        "RA_OF_ASC_NODE": 230.25,
        "ARG_OF_PERICENTER": 86.019,
        "MEAN_ANOMALY": 274.9805,
        "EPHEMERIS_TYPE": 0,
        "CLASSIFICATION_TYPE": "U",
        "NORAD_CAT_ID": 29601,
        "ELEMENT_SET_NO": 999,
        "REV_AT_EPOCH": 13519,
        "BSTAR": 0,
        "MEAN_MOTION_DOT": -3.3e-07,
        "MEAN_MOTION_DDOT": 0
    }
]